[{"OBJECT_NAME":"STARLINK-11146 [DTC]","OBJECT_ID":"2024-152K","EPOCH":"2026-03-09T12:52:38.411616","MEAN_MOTION":15.69702607,"ECCENTRICITY":0.0001233,"INCLINATION":53.1595,"RA_OF_ASC_NODE":116.8091,"ARG_OF_PERICENTER":62.5419,"MEAN_ANOMALY":297.5724,"EPHEMERIS_TYPE":0,"CLASSIFICATION_TYPE":"U","NORAD_CAT_ID":60729,"ELEMENT_SET_NO":999,"REV_AT_EPOCH":8894,"BSTAR":1.6846336e-5,"MEAN_MOTION_DOT":1.452e-5,"MEAN_MOTION_DDOT":0},{"OBJECT_NAME":"FREGAT DEB","OBJECT_ID":"2011-037BP","EPOCH":"2026-03-09T06:46:06.972096","MEAN_MOTION":12.80481599,"ECCENTRICITY":0.12781698,"INCLINATION":51.4136,"RA_OF_ASC_NODE":170.397,"ARG_OF_PERICENTER":239.8148,"MEAN_ANOMALY":107.0118,"EPHEMERIS_TYPE":0,"CLASSIFICATION_TYPE":"U","NORAD_CAT_ID":45829,"ELEMENT_SET_NO":999,"REV_AT_EPOCH":25015,"BSTAR":0.0043609848,"MEAN_MOTION_DOT":0.00065096,"MEAN_MOTION_DDOT":0}]
